{
"type": "FeatureCollection",
"name": "high_population_places",
"crs": { "type": "name", "properties": { "name": "urn:ogc:def:crs:OGC:1.3:CRS84" } },
"features": [
{ "type": "Feature", "properties": { "place_id": 1, "name": "Central", "population": 12000, "category": "Urban" }, "geometry": { "type": "Point", "coordinates": [ 77.59, 12.97 ] } },
{ "type": "Feature", "properties": { "place_id": 2, "name": "North", "population": 8500, "category": "Urban" }, "geometry": { "type": "Point", "coordinates": [ 77.585, 13.01 ] } },
{ "type": "Feature", "properties": { "place_id": 4, "name": "East", "population": 9100, "category": "Urban" }, "geometry": { "type": "Point", "coordinates": [ 77.615, 12.97 ] } }
]
}
