{
"type": "FeatureCollection",
"name": "zones",
"crs": { "type": "name", "properties": { "name": "urn:ogc:def:crs:OGC:1.3:CRS84" } },
"features": [
{ "type": "Feature", "properties": { "zone_id": 101, "zone_name": "Central Zone", "priority": 3 }, "geometry": { "type": "Polygon", "coordinates": [ [ [ 77.54, 12.94 ], [ 77.62, 12.94 ], [ 77.62, 13.0 ], [ 77.54, 13.0 ], [ 77.54, 12.94 ] ] ] } },
{ "type": "Feature", "properties": { "zone_id": 102, "zone_name": "North Zone", "priority": 2 }, "geometry": { "type": "Polygon", "coordinates": [ [ [ 77.54, 13.0 ], [ 77.63, 13.0 ], [ 77.63, 13.05 ], [ 77.54, 13.05 ], [ 77.54, 13.0 ] ] ] } },
{ "type": "Feature", "properties": { "zone_id": 103, "zone_name": "South Zone", "priority": 1 }, "geometry": { "type": "Polygon", "coordinates": [ [ [ 77.54, 12.89 ], [ 77.63, 12.89 ], [ 77.63, 12.94 ], [ 77.54, 12.94 ], [ 77.54, 12.89 ] ] ] } }
]
}
