{
"type": "FeatureCollection",
"name": "roads",
"crs": { "type": "name", "properties": { "name": "urn:ogc:def:crs:OGC:1.3:CRS84" } },
"features": [
{ "type": "Feature", "properties": { "road_id": 1 }, "geometry": { "type": "LineString", "coordinates": [ [ 77.58, 12.98 ], [ 77.53, 12.98 ] ] } },
{ "type": "Feature", "properties": { "road_id": 2 }, "geometry": { "type": "LineString", "coordinates": [ [ 77.58, 12.98 ], [ 77.64, 12.98 ] ] } },
{ "type": "Feature", "properties": { "road_id": 3 }, "geometry": { "type": "LineString", "coordinates": [ [ 77.58, 12.98 ], [ 77.58, 12.93 ] ] } },
{ "type": "Feature", "properties": { "road_id": 4 }, "geometry": { "type": "LineString", "coordinates": [ [ 77.58, 12.98 ], [ 77.58, 13.03 ] ] } },
{ "type": "Feature", "properties": { "road_id": 5 }, "geometry": { "type": "LineString", "coordinates": [ [ 77.58, 12.98 ], [ 77.64, 13.02 ] ] } }
]
}
