{
"type": "FeatureCollection",
"name": "zones",
"crs": { "type": "name", "properties": { "name": "urn:ogc:def:crs:OGC:1.3:CRS84" } },
"features": [
{ "type": "Feature", "properties": { "zone": "North", "priority": 2 }, "geometry": { "type": "Polygon", "coordinates": [ [ [ 77.53, 12.98 ], [ 77.64, 12.98 ], [ 77.64, 13.02 ], [ 77.53, 13.02 ], [ 77.53, 12.98 ] ] ] } },
{ "type": "Feature", "properties": { "zone": "South", "priority": 1 }, "geometry": { "type": "Polygon", "coordinates": [ [ [ 77.53, 12.94 ], [ 77.64, 12.94 ], [ 77.64, 12.98 ], [ 77.53, 12.98 ], [ 77.53, 12.94 ] ] ] } }
]
}
