{
"type": "FeatureCollection",
"name": "places",
"crs": { "type": "name", "properties": { "name": "urn:ogc:def:crs:OGC:1.3:CRS84" } },
"features": [
{ "type": "Feature", "properties": { "id": 1, "name": "Central Hub", "population": 12000, "category": "Urban", "value": 82 }, "geometry": { "type": "Point", "coordinates": [ 77.59, 12.97 ] } },
{ "type": "Feature", "properties": { "id": 2, "name": "North Gate", "population": 8500, "category": "Urban", "value": 71 }, "geometry": { "type": "Point", "coordinates": [ 77.585, 13.01 ] } },
{ "type": "Feature", "properties": { "id": 3, "name": "South Park", "population": 6400, "category": "Park", "value": 65 }, "geometry": { "type": "Point", "coordinates": [ 77.575, 12.925 ] } },
{ "type": "Feature", "properties": { "id": 4, "name": "East Market", "population": 9100, "category": "Commercial", "value": 91 }, "geometry": { "type": "Point", "coordinates": [ 77.615, 12.97 ] } },
{ "type": "Feature", "properties": { "id": 5, "name": "West End", "population": 5300, "category": "Rural", "value": 48 }, "geometry": { "type": "Point", "coordinates": [ 77.52, 12.965 ] } },
{ "type": "Feature", "properties": { "id": 6, "name": "Lakeside", "population": 7200, "category": "Park", "value": 76 }, "geometry": { "type": "Point", "coordinates": [ 77.555, 12.96 ] } }
]
}
