{
"type": "FeatureCollection",
"name": "cities",
"crs": { "type": "name", "properties": { "name": "urn:ogc:def:crs:OGC:1.3:CRS84" } },
"features": [
{ "type": "Feature", "properties": { "name": "Alpha", "population": 12000 }, "geometry": { "type": "Point", "coordinates": [ 77.55, 12.96 ] } },
{ "type": "Feature", "properties": { "name": "Beta", "population": 19500 }, "geometry": { "type": "Point", "coordinates": [ 77.59, 12.98 ] } },
{ "type": "Feature", "properties": { "name": "Gamma", "population": 8000 }, "geometry": { "type": "Point", "coordinates": [ 77.63, 13.01 ] } },
{ "type": "Feature", "properties": { "name": "Delta", "population": 14000 }, "geometry": { "type": "Point", "coordinates": [ 77.49, 12.93 ] } }
]
}
